start=new Date('2022-08-18T00:00:00.000Z').valueOf();
sats=[{"ELEMENT_SET_NO":"999","CLASSIFICATION_TYPE":"U","EPOCH":"2022-08-17T07:56:29.378112","TLE_LINE2":"2 48300  53.0532 169.1500 0001633  68.7909 291.3255 15.06407304 72184","CENTER_NAME":"EARTH","EPHEMERIS_TYPE":"0","SITE":"AFETR","COUNTRY_CODE":"US","OBJECT_TYPE":"PAYLOAD","TIME_SYSTEM":"UTC","APOAPSIS":"548.322","SEMIMAJOR_AXIS":"6925.326","MEAN_MOTION":"15.06407304","MEAN_MOTION_DDOT":"0.0000000000000","LAUNCH_DATE":"2021-04-29","MEAN_ELEMENT_THEORY":"SGP4","RCS_SIZE":"LARGE","RA_OF_ASC_NODE":"169.1500","DECAY_DATE":null,"MEAN_ANOMALY":"291.3255","TLE_LINE1":"1 48300U 21036AA  22229.33089558  .00001250  00000-0  10281-3 0  9998","PERIAPSIS":"546.060","ARG_OF_PERICENTER":"68.7909","PERIOD":"95.592","FILE":"3538809","REV_AT_EPOCH":"7218","OBJECT_NAME":"STARLINK-2538","BSTAR":"0.00010281000000","NORAD_CAT_ID":"48300","REF_FRAME":"TEME","ECCENTRICITY":"0.00016330","MEAN_MOTION_DOT":"0.00001250","OBJECT_ID":"2021-036AA","INCLINATION":"53.0532","GP_ID":"210405825"},{"OBJECT_TYPE":"PAYLOAD","APOAPSIS":"548.247","TIME_SYSTEM":"UTC","SITE":"AFETR","COUNTRY_CODE":"US","CENTER_NAME":"EARTH","EPHEMERIS_TYPE":"0","ELEMENT_SET_NO":"999","CLASSIFICATION_TYPE":"U","TLE_LINE2":"2 48301  53.0541 169.1796 0001530  75.2904 284.8254 15.06408469 72174","EPOCH":"2022-08-17T07:51:10.925856","LAUNCH_DATE":"2021-04-29","MEAN_MOTION_DDOT":"0.0000000000000","MEAN_MOTION":"15.06408469","SEMIMAJOR_AXIS":"6925.323","REV_AT_EPOCH":"7217","FILE":"3538809","MEAN_ANOMALY":"284.8254","ARG_OF_PERICENTER":"75.2904","PERIAPSIS":"546.128","PERIOD":"95.592","TLE_LINE1":"1 48301U 21036AB  22229.32720979  .00000310  00000-0  39733-4 0  9997","DECAY_DATE":null,"RCS_SIZE":"LARGE","MEAN_ELEMENT_THEORY":"SGP4","RA_OF_ASC_NODE":"169.1796","MEAN_MOTION_DOT":"0.00000310","OBJECT_ID":"2021-036AB","INCLINATION":"53.0541","GP_ID":"210404573","ECCENTRICITY":"0.00015300","NORAD_CAT_ID":"48301","REF_FRAME":"TEME","BSTAR":"0.00003973300000","OBJECT_NAME":"STARLINK-2537"},{"DECAY_DATE":null,"RA_OF_ASC_NODE":"169.1828","RCS_SIZE":"LARGE","MEAN_ELEMENT_THEORY":"SGP4","REV_AT_EPOCH":"7217","FILE":"3538809","ARG_OF_PERICENTER":"70.6463","PERIAPSIS":"546.101","PERIOD":"95.592","TLE_LINE1":"1 48302U 21036AC  22229.32352638  .00001166  00000-0  97130-4 0  9996","MEAN_ANOMALY":"289.4696","REF_FRAME":"TEME","NORAD_CAT_ID":"48302","BSTAR":"0.00009713000000","OBJECT_NAME":"STARLINK-2556","GP_ID":"210404823","INCLINATION":"53.0543","OBJECT_ID":"2021-036AC","MEAN_MOTION_DOT":"0.00001166","ECCENTRICITY":"0.00015750","CENTER_NAME":"EARTH","EPHEMERIS_TYPE":"0","TLE_LINE2":"2 48302  53.0543 169.1828 0001575  70.6463 289.4696 15.06406968 72174","EPOCH":"2022-08-17T07:45:52.679232","CLASSIFICATION_TYPE":"U","ELEMENT_SET_NO":"999","TIME_SYSTEM":"UTC","APOAPSIS":"548.283","OBJECT_TYPE":"PAYLOAD","COUNTRY_CODE":"US","SITE":"AFETR","MEAN_MOTION":"15.06406968","SEMIMAJOR_AXIS":"6925.327","LAUNCH_DATE":"2021-04-29","MEAN_MOTION_DDOT":"0.0000000000000"},{"ECCENTRICITY":"0.00015830","GP_ID":"210405575","INCLINATION":"53.0548","OBJECT_ID":"2021-036AD","MEAN_MOTION_DOT":"-0.00000405","BSTAR":"-0.00000829620000","OBJECT_NAME":"STARLINK-2530","REF_FRAME":"TEME","NORAD_CAT_ID":"48303","PERIOD":"95.592","PERIAPSIS":"546.131","ARG_OF_PERICENTER":"67.4772","TLE_LINE1":"1 48303U 21036AD  22229.25255333 -.00000405  00000-0 -82962-5 0  9998","MEAN_ANOMALY":"292.6384","REV_AT_EPOCH":"7216","FILE":"3538809","RA_OF_ASC_NODE":"169.5024","RCS_SIZE":"LARGE","MEAN_ELEMENT_THEORY":"SGP4","DECAY_DATE":null,"MEAN_MOTION_DDOT":"0.0000000000000","LAUNCH_DATE":"2021-04-29","SEMIMAJOR_AXIS":"6925.362","MEAN_MOTION":"15.06395664","COUNTRY_CODE":"US","SITE":"AFETR","TIME_SYSTEM":"UTC","APOAPSIS":"548.323","OBJECT_TYPE":"PAYLOAD","EPOCH":"2022-08-17T06:03:40.607712","TLE_LINE2":"2 48303  53.0548 169.5024 0001583  67.4772 292.6384 15.06395664 72167","CLASSIFICATION_TYPE":"U","ELEMENT_SET_NO":"999","EPHEMERIS_TYPE":"0","CENTER_NAME":"EARTH"},{"COUNTRY_CODE":"US","SITE":"AFETR","TIME_SYSTEM":"UTC","APOAPSIS":"548.295","OBJECT_TYPE":"PAYLOAD","EPOCH":"2022-08-17T02:48:38.971008","TLE_LINE2":"2 48304  53.0543 170.1153 0001567  69.8059 290.3098 15.06401118 72147","CLASSIFICATION_TYPE":"U","ELEMENT_SET_NO":"999","EPHEMERIS_TYPE":"0","CENTER_NAME":"EARTH","MEAN_MOTION_DDOT":"0.0000000000000","LAUNCH_DATE":"2021-04-29","SEMIMAJOR_AXIS":"6925.345","MEAN_MOTION":"15.06401118","TLE_LINE1":"1 48304U 21036AE  22229.11711772 -.00000390  00000-0 -72750-5 0  9995","PERIOD":"95.592","PERIAPSIS":"546.125","ARG_OF_PERICENTER":"69.8059","MEAN_ANOMALY":"290.3098","FILE":"3538809","REV_AT_EPOCH":"7214","RA_OF_ASC_NODE":"170.1153","MEAN_ELEMENT_THEORY":"SGP4","RCS_SIZE":"LARGE","DECAY_DATE":null,"ECCENTRICITY":"0.00015670","INCLINATION":"53.0543","GP_ID":"210406325","OBJECT_ID":"2021-036AE","MEAN_MOTION_DOT":"-0.00000390","OBJECT_NAME":"STARLINK-2524","BSTAR":"-0.00000727500000","REF_FRAME":"TEME","NORAD_CAT_ID":"48304"},{"REV_AT_EPOCH":"7216","FILE":"3538809","PERIOD":"95.592","PERIAPSIS":"546.105","ARG_OF_PERICENTER":"72.4284","TLE_LINE1":"1 48305U 21036AF  22229.24518304  .00001738  00000-0  13551-3 0  9993","MEAN_ANOMALY":"287.6878","DECAY_DATE":null,"RA_OF_ASC_NODE":"169.5431","RCS_SIZE":"LARGE","MEAN_ELEMENT_THEORY":"SGP4","GP_ID":"210405073","INCLINATION":"53.0551","OBJECT_ID":"2021-036AF","MEAN_MOTION_DOT":"0.00001738","ECCENTRICITY":"0.00015850","REF_FRAME":"TEME","NORAD_CAT_ID":"48305","BSTAR":"0.00013551000000","OBJECT_NAME":"STARLINK-2519","TIME_SYSTEM":"UTC","APOAPSIS":"548.301","OBJECT_TYPE":"PAYLOAD","COUNTRY_CODE":"US","SITE":"AFETR","EPHEMERIS_TYPE":"0","CENTER_NAME":"EARTH","TLE_LINE2":"2 48305  53.0551 169.5431 0001585  72.4284 287.6878 15.06403391 72160","EPOCH":"2022-08-17T05:53:03.814656","CLASSIFICATION_TYPE":"U","ELEMENT_SET_NO":"999","LAUNCH_DATE":"2021-04-29","MEAN_MOTION_DDOT":"0.0000000000000","MEAN_MOTION":"15.06403391","SEMIMAJOR_AXIS":"6925.338"},{"BSTAR":"0.00041337000000","OBJECT_NAME":"STARLINK-2523","NORAD_CAT_ID":"48306","REF_FRAME":"TEME","ECCENTRICITY":"0.00016820","OBJECT_ID":"2021-036AG","MEAN_MOTION_DOT":"0.00005882","INCLINATION":"53.0534","GP_ID":"210405323","RCS_SIZE":"LARGE","MEAN_ELEMENT_THEORY":"SGP4","RA_OF_ASC_NODE":"169.2583","DECAY_DATE":null,"MEAN_ANOMALY":"296.9195","PERIOD":"95.592","PERIAPSIS":"546.028","ARG_OF_PERICENTER":"63.1966","TLE_LINE1":"1 48306U 21036AG  22229.30878213  .00005882  00000-0  41337-3 0  9996","REV_AT_EPOCH":"7217","FILE":"3538809","SEMIMAJOR_AXIS":"6925.327","MEAN_MOTION":"15.06406879","MEAN_MOTION_DDOT":"0.0000000000000","LAUNCH_DATE":"2021-04-29","CLASSIFICATION_TYPE":"U","ELEMENT_SET_NO":"999","TLE_LINE2":"2 48306  53.0534 169.2583 0001682  63.1966 296.9195 15.06406879 72179","EPOCH":"2022-08-17T07:24:38.776032","EPHEMERIS_TYPE":"0","CENTER_NAME":"EARTH","SITE":"AFETR","COUNTRY_CODE":"US","OBJECT_TYPE":"PAYLOAD","APOAPSIS":"548.357","TIME_SYSTEM":"UTC"},{"NORAD_CAT_ID":"48307","REF_FRAME":"TEME","BSTAR":"0.00014771000000","OBJECT_NAME":"STARLINK-2528","MEAN_MOTION_DOT":"0.00001920","OBJECT_ID":"2021-036AH","GP_ID":"210406075","INCLINATION":"53.0541","ECCENTRICITY":"0.00014600","DECAY_DATE":null,"RCS_SIZE":"LARGE","MEAN_ELEMENT_THEORY":"SGP4","RA_OF_ASC_NODE":"169.2818","REV_AT_EPOCH":"7217","FILE":"3538809","MEAN_ANOMALY":"290.2817","PERIAPSIS":"546.188","PERIOD":"95.592","ARG_OF_PERICENTER":"69.8329","TLE_LINE1":"1 48307U 21036AH  22229.30509445  .00001920  00000-0  14771-3 0  9996","MEAN_MOTION":"15.06404661","SEMIMAJOR_AXIS":"6925.334","LAUNCH_DATE":"2021-04-29","MEAN_MOTION_DDOT":"0.0000000000000","EPHEMERIS_TYPE":"0","CENTER_NAME":"EARTH","CLASSIFICATION_TYPE":"U","ELEMENT_SET_NO":"999","EPOCH":"2022-08-17T07:19:20.160480","TLE_LINE2":"2 48307  53.0541 169.2818 0001460  69.8329 290.2817 15.06404661 72174","OBJECT_TYPE":"PAYLOAD","TIME_SYSTEM":"UTC","APOAPSIS":"548.210","SITE":"AFETR","COUNTRY_CODE":"US"},{"MEAN_MOTION_DOT":"0.00000765","OBJECT_ID":"2021-036AJ","GP_ID":"210405826","INCLINATION":"53.0538","ECCENTRICITY":"0.00019500","NORAD_CAT_ID":"48308","REF_FRAME":"TEME","BSTAR":"0.00007023600000","OBJECT_NAME":"STARLINK-2532","REV_AT_EPOCH":"7214","FILE":"3538809","MEAN_ANOMALY":"294.2973","PERIAPSIS":"545.867","ARG_OF_PERICENTER":"65.8220","PERIOD":"95.592","TLE_LINE1":"1 48308U 21036AJ  22229.10238008  .00000765  00000-0  70236-4 0  9994","DECAY_DATE":null,"RCS_SIZE":"LARGE","MEAN_ELEMENT_THEORY":"SGP4","RA_OF_ASC_NODE":"170.1810","LAUNCH_DATE":"2021-04-29","MEAN_MOTION_DDOT":"0.0000000000000","MEAN_MOTION":"15.06398582","SEMIMAJOR_AXIS":"6925.353","OBJECT_TYPE":"PAYLOAD","APOAPSIS":"548.568","TIME_SYSTEM":"UTC","SITE":"AFETR","COUNTRY_CODE":"US","CENTER_NAME":"EARTH","EPHEMERIS_TYPE":"0","ELEMENT_SET_NO":"999","CLASSIFICATION_TYPE":"U","EPOCH":"2022-08-17T02:27:25.638912","TLE_LINE2":"2 48308  53.0538 170.1810 0001950  65.8220 294.2973 15.06398582 72142"},{"PERIOD":"95.592","PERIAPSIS":"546.041","ARG_OF_PERICENTER":"72.7749","TLE_LINE1":"1 48309U 21036AK  22229.29772920  .00004697  00000-0  33399-3 0  9997","MEAN_ANOMALY":"287.3425","REV_AT_EPOCH":"7217","FILE":"3538809","RA_OF_ASC_NODE":"169.3188","RCS_SIZE":"LARGE","MEAN_ELEMENT_THEORY":"SGP4","DECAY_DATE":null,"ECCENTRICITY":"0.00016890","GP_ID":"210404574","INCLINATION":"53.0540","MEAN_MOTION_DOT":"0.00004697","OBJECT_ID":"2021-036AK","BSTAR":"0.00033399000000","OBJECT_NAME":"STARLINK-2517","REF_FRAME":"TEME","NORAD_CAT_ID":"48309","COUNTRY_CODE":"US","SITE":"AFETR","TIME_SYSTEM":"UTC","APOAPSIS":"548.381","OBJECT_TYPE":"PAYLOAD","EPOCH":"2022-08-17T07:08:43.802880","TLE_LINE2":"2 48309  53.0540 169.3188 0001689  72.7749 287.3425 15.06400792 72171","CLASSIFICATION_TYPE":"U","ELEMENT_SET_NO":"999","EPHEMERIS_TYPE":"0","CENTER_NAME":"EARTH","MEAN_MOTION_DDOT":"0.0000000000000","LAUNCH_DATE":"2021-04-29","SEMIMAJOR_AXIS":"6925.346","MEAN_MOTION":"15.06400792"}];
